NORAD_CAT_ID,OBJECT_NAME,OBJECT_TYPE,EPOCH,MEAN_MOTION,ECCENTRICITY,INCLINATION,RA_OF_ASC_NODE,ARG_OF_PERICENTER,MEAN_ANOMALY,BSTAR,MEAN_MOTION_DOT,MEAN_MOTION_DDOT,TLE_LINE0,TLE_LINE1,TLE_LINE2,SEMIMAJOR_AXIS,PERIOD,APOGEE,PERIGEE,DECAYED
52619.0,STARLINK-3741,PAYLOAD,2023-03-14 13:40:15,15.08847931,0.000128,53.2148,127.3469,101.9014,258.2122,0.00031732,4.767e-05,0.0,0 STARLINK-3741,1 52619U 22052X   23073.56962475  .00004767  00000-0  31732-3 0  9996,2 52619  53.2148 127.3469 0001280 101.9014 258.2122 15.08847931 46263,6917.856,95.437,540.607,538.836,0.0
52619.0,STARLINK-3741,PAYLOAD,2023-03-14 20:01:48,15.08850923,0.0001002,53.2147,126.1569,77.8208,282.2896,0.00035684,5.398e-05,0.0,0 STARLINK-3741,1 52619U 22052X   23073.83458424  .00005398  00000-0  35684-3 0  9991,2 52619  53.2147 126.1569 0001002  77.8208 282.2896 15.08850923 46684,6917.847,95.437,540.405,539.019,0.0
52619.0,STARLINK-3741,PAYLOAD,2023-03-15 10:20:15,15.08876365,0.0001321,53.2148,123.4837,88.1033,272.011,0.00099662,0.00015625,0.0,0 STARLINK-3741,1 52619U 22052X   23074.43073392  .00015625  00000-0  99662-3 0  9995,2 52619  53.2148 123.4837 0001321  88.1033 272.0110 15.08876365 46772,6917.769,95.435,540.548,538.72,0.0
52619.0,STARLINK-3741,PAYLOAD,2023-03-15 19:52:34,15.08863578,0.0001475,53.2147,121.6992,86.1251,273.991,0.00037774,5.733e-05,0.0,0 STARLINK-3741,1 52619U 22052X   23074.82817263  .00005733  00000-0  37774-3 0  9996,2 52619  53.2147 121.6992 0001475  86.1251 273.9910 15.08863578 46830,6917.808,95.436,540.694,538.653,0.0
52619.0,STARLINK-3741,PAYLOAD,2023-03-16 11:46:26,15.08832453,0.0001943,53.2148,118.7264,89.8873,270.2342,0.0011052,0.00017341,0.0,0 STARLINK-3741,1 52619U 22052X   23075.49058061  .00017341  00000-0  11052-2 0  9991,2 52619  53.2148 118.7264 0001943  89.8873 270.2342 15.08832453 46938,6917.903,95.438,541.113,538.424,0.0
52619.0,STARLINK-3741,PAYLOAD,2023-03-16 13:21:49,15.0883559,0.0001943,53.2144,118.4284,87.1597,272.9617,0.0011059,0.00017354,0.0,0 STARLINK-3741,1 52619U 22052X   23075.55682063  .00017354  00000-0  11059-2 0  9994,2 52619  53.2144 118.4284 0001943  87.1597 272.9617 15.08835590 46565,6917.894,95.438,541.103,538.415,0.0
52619.0,STARLINK-3741,PAYLOAD,2023-03-16 19:43:22,15.08827079,0.0002304,53.2148,117.2393,84.2655,275.86,0.0005228,8.039e-05,0.0,0 STARLINK-3741,1 52619U 22052X   23075.82178752  .00008039  00000-0  52280-3 0  9991,2 52619  53.2148 117.2393 0002304  84.2655 275.8600 15.08827079 46985,6917.92,95.438,541.379,538.191,0.0
52619.0,STARLINK-3741,PAYLOAD,2023-03-17 10:01:51,15.08819556,0.0001783,53.2137,114.5623,82.9678,277.1517,0.00098315,0.00015385,0.0,0 STARLINK-3741,1 52619U 22052X   23076.41795604  .00015385  00000-0  98315-3 0  9999,2 52619  53.2137 114.5623 0001783  82.9678 277.1517 15.08819556 47073,6917.943,95.439,541.041,538.574,0.0
52619.0,STARLINK-3741,PAYLOAD,2023-03-17 11:37:14,15.08822292,0.0001789,53.2137,114.265,82.4911,277.6285,0.0012321,0.00019366,0.0,0 STARLINK-3741,1 52619U 22052X   23076.48419693  .00019366  00000-0  12321-2 0  9992,2 52619  53.2137 114.2650 0001789  82.4911 277.6285 15.08822292 46708,6917.935,95.439,541.037,538.562,0.0
52619.0,STARLINK-3741,PAYLOAD,2023-03-17 19:34:10,15.08832759,0.000201,53.2144,112.7792,81.5146,278.6073,0.0010779,0.00016905,0.0,0 STARLINK-3741,1 52619U 22052X   23076.81539965  .00016905  00000-0  10779-2 0  9995,2 52619  53.2144 112.7792 0002010  81.5146 278.6073 15.08832759 46754,6917.903,95.438,541.158,538.377,0.0
52619.0,STARLINK-3741,PAYLOAD,2023-03-18 19:24:57,15.08842045,0.0001845,53.2138,108.3169,86.3066,273.8137,-2.7717e-06,-3.32e-06,0.0,0 STARLINK-3741,1 52619U 22052X   23077.80899398 -.00000332  00000-0 -27717-5 0  9996,2 52619  53.2138 108.3169 0001845  86.3066 273.8137 15.08842045 47281,6917.874,95.437,541.015,538.463,0.0
52619.0,STARLINK-3741,PAYLOAD,2023-03-19 08:08:01,15.08856007,0.0001682,53.2135,105.9374,86.5784,273.54,0.00053734,8.278e-05,0.0,0 STARLINK-3741,1 52619U 22052X   23078.33890928  .00008278  00000-0  53734-3 0  9996,2 52619  53.2135 105.9374 0001682  86.5784 273.5400 15.08856007 47369,6917.831,95.437,540.86,538.533,0.0
52619.0,STARLINK-3741,PAYLOAD,2023-03-19 19:15:43,15.08854116,0.0001514,53.2127,103.8568,82.0718,278.0446,0.00074523,0.00011597,0.0,0 STARLINK-3741,1 52619U 22052X   23078.80258855  .00011597  00000-0  74523-3 0  9992,2 52619  53.2127 103.8568 0001514  82.0718 278.0446 15.08854116 47431,6917.837,95.437,540.75,538.655,0.0
52619.0,STARLINK-3741,PAYLOAD,2023-03-20 07:58:48,15.08845269,0.0001875,53.2144,101.4764,96.0329,264.0877,0.00027693,4.123e-05,0.0,0 STARLINK-3741,1 52619U 22052X   23079.33250953  .00004123  00000-0  27693-3 0  9995,2 52619  53.2144 101.4764 0001875  96.0329 264.0877 15.08845269 47516,6917.864,95.437,541.026,538.432,0.0
52619.0,STARLINK-3741,PAYLOAD,2023-03-21 04:38:49,15.08837797,0.0001849,53.2144,97.6098,98.5704,261.5497,6.1476e-05,6.9e-06,0.0,0 STARLINK-3741,1 52619U 22052X   23080.19363239  .00000690  00000-0  61476-4 0  9996,2 52619  53.2144  97.6098 0001849  98.5704 261.5497 15.08837797 47648,6917.887,95.438,541.031,538.473,0.0
52619.0,STARLINK-3741,PAYLOAD,2023-03-21 06:14:13,15.08832771,0.0001772,53.2146,97.3123,98.9646,261.1547,0.00024108,3.55e-05,0.0,0 STARLINK-3741,1 52619U 22052X   23080.25987647  .00003550  00000-0  24108-3 0  9996,2 52619  53.2146  97.3123 0001772  98.9646 261.1547 15.08832771 47278,6917.902,95.438,540.993,538.542,0.0
52619.0,STARLINK-3741,PAYLOAD,2023-03-21 12:35:45,15.08846169,0.0001927,53.2143,96.1217,102.1965,257.9243,6.485e-06,-1.85e-06,0.0,0 STARLINK-3741,1 52619U 22052X   23080.52482783 -.00000185  00000-0  64850-5 0  9999,2 52619  53.2143  96.1217 0001927 102.1965 257.9243 15.08846169 47698,6917.862,95.437,541.06,538.393,0.0
52619.0,STARLINK-3741,PAYLOAD,2023-03-22 07:40:23,15.08837441,0.0002057,53.2153,92.5509,109.8957,250.2257,3.983e-05,3.46e-06,0.0,0 STARLINK-3741,1 52619U 22052X   23081.31971316  .00000346  00000-0  39830-4 0  9999,2 52619  53.2153  92.5509 0002057 109.8957 250.2257 15.08837441 47811,6917.888,95.438,541.176,538.33,0.0
52619.0,STARLINK-3741,PAYLOAD,2023-03-22 17:12:43,15.08824232,0.0002165,53.2164,90.7675,93.7726,266.3514,-1.5889e-05,-5.41e-06,0.0,0 STARLINK-3741,1 52619U 22052X   23081.71716726 -.00000541  00000-0 -15889-4 0  9992,2 52619  53.2164  90.7675 0002165  93.7726 266.3514 15.08824232 47876,6917.929,95.439,541.291,538.296,0.0
52619.0,STARLINK-3741,PAYLOAD,2023-03-23 09:06:34,15.08829033,0.0001783,53.2163,87.7948,100.7861,259.3332,-3.8212e-06,-3.49e-06,0.0,0 STARLINK-3741,1 52619U 22052X   23082.37956794 -.00000349  00000-0 -38212-5 0  9998,2 52619  53.2163  87.7948 0001783 100.7861 259.3332 15.08829033 47591,6917.914,95.438,541.012,538.545,0.0
52619.0,STARLINK-3741,PAYLOAD,2023-03-23 17:03:29,15.08837046,0.0001723,53.2161,86.3095,99.8396,260.2791,6.5726e-05,7.58e-06,0.0,0 STARLINK-3741,1 52619U 22052X   23082.71076311  .00000758  00000-0  65726-4 0  9995,2 52619  53.2161  86.3095 0001723  99.8396 260.2791 15.08837046 48024,6917.889,95.438,540.946,538.562,0.0
52619.0,STARLINK-3741,PAYLOAD,2023-03-24 04:11:10,15.08864692,0.0001439,53.2155,84.2283,100.1969,259.9186,0.00029667,4.44e-05,0.0,0 STARLINK-3741,1 52619U 22052X   23083.17442479  .00004440  00000-0  29667-3 0  9993,2 52619  53.2155  84.2283 0001439 100.1969 259.9186 15.08864692 48096,6917.805,95.436,540.665,538.674,0.0
52619.0,STARLINK-3741,PAYLOAD,2023-03-24 12:08:06,15.08881756,0.0001621,53.2149,82.7405,102.369,257.7484,0.0013425,0.00021167,0.0,0 STARLINK-3741,1 52619U 22052X   23083.50562940  .00021167  00000-0  13425-2 0  9995,2 52619  53.2149  82.7405 0001621 102.3690 257.7484 15.08881756 47766,6917.753,95.435,540.739,538.496,0.0
52619.0,STARLINK-3741,PAYLOAD,2023-03-24 16:54:16,15.08842834,0.0001595,53.2143,81.8503,93.3047,266.8128,-0.00015829,-2.807e-05,0.0,0 STARLINK-3741,1 52619U 22052X   23083.70435582 -.00002807  00000-0 -15829-3 0  9991,2 52619  53.2143  81.8503 0001595  93.3047 266.8128 15.08842834 48170,6917.872,95.437,540.84,538.633,0.0
52619.0,STARLINK-3741,PAYLOAD,2023-03-25 07:12:45,15.08824851,0.0001448,53.2146,79.1733,86.8709,273.2449,0.00091367,0.00014277,0.0,0 STARLINK-3741,1 52619U 22052X   23084.30052308  .00014277  00000-0  91367-3 0  9992,2 52619  53.2146  79.1733 0001448  86.8709 273.2449 15.08824851 48264,6917.927,95.439,540.793,538.79,0.0
52619.0,STARLINK-3741,PAYLOAD,2023-03-25 16:45:04,15.08834089,0.0001773,53.2149,77.3898,82.7301,277.3893,0.0012208,0.00019191,0.0,0 STARLINK-3741,1 52619U 22052X   23084.69796731  .00019191  00000-0  12208-2 0  9995,2 52619  53.2149  77.3898 0001773  82.7301 277.3893 15.08834089 47949,6917.898,95.438,540.99,538.537,0.0
52619.0,STARLINK-3741,PAYLOAD,2023-03-26 16:35:50,15.08857722,0.0001538,53.2145,72.9283,85.3074,274.8093,0.00081248,0.00012673,0.0,0 STARLINK-3741,1 52619U 22052X   23085.69156012  .00012673  00000-0  81248-3 0  9997,2 52619  53.2145  72.9283 0001538  85.3074 274.8093 15.08857722 48471,6917.826,95.436,540.755,538.627,0.0
52619.0,STARLINK-3741,PAYLOAD,2023-03-26 22:57:23,15.08853141,0.0001652,53.2145,71.7399,88.1666,271.9515,0.00041934,6.394e-05,0.0,0 STARLINK-3741,1 52619U 22052X   23085.95651923  .00006394  00000-0  41934-3 0  9998,2 52619  53.2145  71.7399 0001652  88.1666 271.9515 15.08853141 48132,6917.84,95.437,540.848,538.562,0.0
52619.0,STARLINK-3741,PAYLOAD,2023-03-27 05:18:55,15.08859434,0.0001603,53.2149,70.5489,94.9332,265.1844,0.0005254,8.088e-05,0.0,0 STARLINK-3741,1 52619U 22052X   23086.22147629  .00008088  00000-0  52540-3 0  9999,2 52619  53.2149  70.5489 0001603  94.9332 265.1844 15.08859434 48551,6917.821,95.436,540.795,538.577,0.0
52619.0,STARLINK-3741,PAYLOAD,2023-03-27 10:05:04,15.08865011,0.0001694,53.2156,69.6562,97.9261,262.1924,0.00070072,0.00010889,0.0,0 STARLINK-3741,1 52619U 22052X   23086.42019291  .00010889  00000-0  70072-3 0  9996,2 52619  53.2156  69.6562 0001694  97.9261 262.1924 15.08865011 48200,6917.804,95.436,540.841,538.497,0.0
